STARLINK-32152          
1 60275U 24131W   26068.37515479 -.00000093  00000+0  89826-5 0  9994
2 60275  53.1607  53.6603 0001150  77.1887 282.9242 15.30192193 91577
HAWK-11B                
1 62379U 24247C   26068.44730104  .00009093  00000+0  32842-3 0  9993
2 62379  45.0161 115.7610 0004690 333.0326  27.0314 15.28847070 67738
